     2.100          NAVIGATION                              RINEX VERSION / TYPE
fic2rin                                 08/09/2012 00:19:01 PGM / RUN BY / DATE
                                                            END OF HEADER
27 12  8  8  1 59 28.0  .417768023908D-03  .420641299570D-11  .000000000000D+00
     .116000000000D+03 -.325000000000D+02  .383873132714D-08 -.723336956493D+00
    -.169686973095D-05  .217353667831D-01  .840984284878D-05  .515370122528D+04
     .266368000000D+06 -.394880771637D-06  .621479812066D+00 -.260770320892D-07
     .982191230287D+00  .234906250000D+03 -.105065532826D+01 -.804319217410D-08
     .817891211309D-10  .100000000000D+01  .170000000000D+04  .000000000000D+00
     .240000000000D+01  .000000000000D+00 -.419095158577D-08  .116000000000D+03
     .259206000000D+06  .400000000000D+01
13 12  8  8  1 59 44.0  .189431011677D-03 -.250111042988D-11  .000000000000D+00
     .600000000000D+01 -.478125000000D+01  .415553023737D-08 -.718926628603D+00
    -.314787030220D-06  .489001418464D-02  .484660267830D-05  .515363144112D+04
     .266384000000D+06 -.104308128357D-06 -.295496595888D+00  .186264514923D-07
     .985102327546D+00  .299156250000D+03  .206335931680D+01 -.809355141462D-08
    -.236438420038D-09  .100000000000D+01  .170000000000D+04  .000000000000D+00
     .240000000000D+01  .000000000000D+00 -.111758708954D-07  .600000000000D+01
     .259206000000D+06  .400000000000D+01
30 12  8  8  1 59 44.0 -.348616391420D-03 -.234194885707D-10  .000000000000D+00
     .530000000000D+02  .109687500000D+02  .443482758551D-08 -.315900574115D+00
     .573694705963D-06  .112366379471D-01  .803917646408D-05  .515369227600D+04
     .266384000000D+06 -.217929482460D-06  .160419114630D+01  .109896063805D-06
     .960494616182D+00  .227093750000D+03  .159157052277D+01 -.822212819893D-08
     .440375486264D-09  .100000000000D+01  .170000000000D+04  .000000000000D+00
     .485000000000D+01  .000000000000D+00 -.419095158577D-08  .530000000000D+02
     .259206000000D+06  .400000000000D+01
 1 12  8  8  2  0  0.0  .268739182502D-03  .147792889038D-11  .000000000000D+00
     .750000000000D+02 -.678125000000D+01  .454661795632D-08 -.249174187581D+01
    -.467523932457D-06  .101120886393D-02  .105686485767D-04  .515364729881D+04
     .266400000000D+06  .111758708954D-07 -.248685000502D+01 -.726431608200D-07
     .960269433591D+00  .176562500000D+03  .308841511620D+00 -.791461538979D-08
    -.156792245312D-09  .100000000000D+01  .170000000000D+04  .000000000000D+00
     .240000000000D+01  .000000000000D+00  .838190317154D-08  .750000000000D+02
     .259206000000D+06  .400000000000D+01
 2 12  8  8  2  0  0.0  .399218406528D-03  .113686837722D-11  .000000000000D+00
     .520000000000D+02 -.201875000000D+02  .509164065870D-08 -.159231229392D+01
    -.105053186417D-05  .113726201234D-01  .961497426033D-05  .515373884583D+04
     .266400000000D+06  .912696123123D-07 -.250215199208D+01 -.149011611938D-06
     .938811036677D+00  .180875000000D+03 -.275231761358D+01 -.815712549130D-08
    -.285726187357D-11  .100000000000D+01  .170000000000D+04  .000000000000D+00
     .240000000000D+01  .000000000000D+00 -.172294676304D-07  .520000000000D+02
     .259206000000D+06  .400000000000D+01
 3 12  8  8  2  0  0.0  .853789970279D-04  .477484718431D-11  .000000000000D+00
     .640000000000D+02 -.273125000000D+02  .545665586305D-08 -.142004298738D+01
    -.102445483208D-05  .156739875674D-01  .487267971039D-05  .515372487640D+04
     .266400000000D+06  .271946191788D-06  .261635599832D+01  .266358256340D-06
     .932032122993D+00  .265718750000D+03  .121609046232D+01 -.852464079979D-08
     .121433629627D-09  .100000000000D+01  .170000000000D+04  .000000000000D+00
     .340000000000D+01  .000000000000D+00 -.465661287308D-08  .640000000000D+02
     .259206000000D+06  .400000000000D+01
 4 12  8  8  2  0  0.0  .267652794719D-03  .113686837722D-10  .000000000000D+00
     .300000000000D+02 -.222812500000D+02  .515021452711D-08  .164832210947D+01
    -.108964741230D-05  .101063752081D-01  .103656202555D-04  .515364081573D+04
     .266400000000D+06 -.273808836937D-06 -.248535290440D+01 -.298023223877D-07
     .937854614483D+00  .171906250000D+03  .879861588190D+00 -.829605984991D-08
    -.179293182566D-09  .100000000000D+01  .170000000000D+04  .000000000000D+00
     .240000000000D+01  .000000000000D+00 -.651925802231D-08  .300000000000D+02
     .259206000000D+06  .400000000000D+01
 5 12  8  8  2  0  0.0 -.341680832207D-03 -.329691829393D-11  .000000000000D+00
     .320000000000D+02  .603750000000D+02  .493699135979D-08  .560505449428D+00
     .323355197906D-05  .275153387338D-02  .738538801670D-05  .515371820641D+04
     .266400000000D+06  .186264514923D-08 -.143826188826D+01 -.260770320892D-07
     .950115556195D+00  .226937500000D+03  .196570915465D+00 -.826784438891D-08
    -.285726187357D-11  .100000000000D+01  .170000000000D+04  .000000000000D+00
     .240000000000D+01  .000000000000D+00 -.102445483208D-07  .320000000000D+02
     .259206000000D+06  .400000000000D+01
 6 12  8  8  2  0  0.0 -.520749017596D-05 -.659383658785D-11  .000000000000D+00
     .160000000000D+02 -.384062500000D+02  .537558105739D-08  .450842108298D+00
    -.201165676117D-05  .734611798543D-02  .526010990143D-05  .515368042946D+04
     .266400000000D+06  .931322574615D-07  .269353584623D+01 -.126659870148D-06
     .938898191484D+00  .266656250000D+03 -.473994516071D+00 -.858964350742D-08
     .667884962947D-10  .100000000000D+01  .170000000000D+04  .000000000000D+00
     .240000000000D+01  .000000000000D+00 -.512227416039D-08  .160000000000D+02
     .259206000000D+06  .400000000000D+01
 7 12  8  8  2  0  0.0  .108589883894D-03  .397903932026D-11  .000000000000D+00
     .101000000000D+03 -.408750000000D+02  .392444918335D-08 -.293411166813D+01
    -.206008553505D-05  .580006872769D-02  .902637839317D-05  .515373119736D+04
     .266400000000D+06 -.260770320892D-07  .673726285484D+00 -.223517417908D-07
     .976021873606D+00  .213375000000D+03 -.301305317662D+01 -.776782356103D-08
    -.102147111980D-09  .100000000000D+01  .170000000000D+04  .000000000000D+00
     .240000000000D+01  .000000000000D+00 -.107102096081D-07  .101000000000D+03
     .259206000000D+06  .400000000000D+01
 8 12  8  8  2  0  0.0  .193994492292D-05  .113686837722D-12  .000000000000D+00
     .810000000000D+02 -.407500000000D+02  .336478301386D-08  .265200405253D+01
    -.211969017982D-05  .125581877073D-01  .913813710213D-05  .515366867638D+04
     .266400000000D+06 -.165775418282D-06  .758593631841D+00 -.502914190292D-07
     .998268890158D+00  .224437500000D+03 -.295157403409D+01 -.745638201681D-08
    -.111433213069D-09  .100000000000D+01  .170000000000D+04  .000000000000D+00
     .240000000000D+01  .000000000000D+00 -.419095158577D-08  .810000000000D+02
     .259206000000D+06  .400000000000D+01
 9 12  8  8  2  0  0.0  .177168287337D-03  .261479726760D-11  .000000000000D+00
     .103000000000D+03 -.341875000000D+02  .362657963303D-08  .266075696789D+01
    -.164657831192D-05  .174294272438D-01  .791624188423D-05  .515361672974D+04
     .266400000000D+06  .165775418282D-06  .648515007767D+00 -.186264514923D-08
     .984748591029D+00  .236062500000D+03  .164041551416D+01 -.739780814840D-08
    -.170364239212D-09  .100000000000D+01  .170000000000D+04  .000000000000D+00
     .240000000000D+01  .000000000000D+00 -.558793544769D-08  .103000000000D+03
     .259206000000D+06  .400000000000D+01
10 12  8  8  2  0  0.0 -.474858097732D-04 -.125055521494D-11  .000000000000D+00
     .790000000000D+02  .727187500000D+02  .507949729574D-08  .791611659243D+00
     .406987965107D-05  .114340436412D-01  .790879130363D-05  .515371763611D+04
     .266400000000D+06 -.316649675369D-07 -.141710731895D+01  .111758708954D-06
     .944986830197D+00  .217031250000D+03  .754666507255D+00 -.851214027910D-08
    -.375015620906D-10  .100000000000D+01  .170000000000D+04  .000000000000D+00
     .340000000000D+01  .000000000000D+00 -.232830643654D-08  .790000000000D+02
     .259206000000D+06  .400000000000D+01
11 12  8  8  2  0  0.0 -.289914198220D-03 -.397903932026D-11  .000000000000D+00
     .700000000000D+02 -.407812500000D+02  .621883046782D-08 -.283444334174D+01
    -.233948230743D-05  .132410191000D-01  .878237187862D-05  .515368045235D+04
     .266400000000D+06  .242143869400D-06 -.276208439700D+01 -.171363353729D-06
     .888542005718D+00  .168000000000D+03  .107199509861D+01 -.861821612615D-08
    -.134291308058D-09  .100000000000D+01  .170000000000D+04  .000000000000D+00
     .240000000000D+01  .000000000000D+00 -.121071934700D-07  .700000000000D+02
     .259206000000D+06  .400000000000D+01
12 12  8  8  2  0  0.0  .842353329062D-04  .204636307899D-11  .000000000000D+00
     .510000000000D+02  .390625000000D+01  .394052128139D-08  .296210069227D+01
     .281259417534D-06  .403555878438D-02  .718794763088D-05  .515374612045D+04
     .266400000000D+06 -.447034835815D-07  .173071588811D+01 -.391155481339D-07
     .980444807462D+00  .250593750000D+03  .132870609794D+00 -.780139638805D-08
     .395016454021D-09  .100000000000D+01  .170000000000D+04  .000000000000D+00
     .240000000000D+01  .000000000000D+00 -.121071934700D-07  .510000000000D+02
     .259206000000D+06  .400000000000D+01
14 12  8  8  2  0  0.0  .209351070225D-03  .113686837722D-11  .000000000000D+00
     .390000000000D+02 -.556250000000D+01  .437161066656D-08 -.457374480786D+00
    -.260770320892D-06  .666986184660D-02  .451132655144D-05  .515361987305D+04
     .266400000000D+06  .372529029846D-08 -.322684698713D+00  .633299350739D-07
     .977888526354D+00  .301968750000D+03 -.206530019362D+01 -.822427114533D-08
    -.293940815243D-09  .100000000000D+01  .170000000000D+04  .000000000000D+00
     .240000000000D+01  .000000000000D+00 -.931322574615D-08  .390000000000D+02
     .259206000000D+06  .400000000000D+01
